NORAD_CAT_ID,OBJECT_NAME,OBJECT_TYPE,EPOCH,MEAN_MOTION,ECCENTRICITY,INCLINATION,RA_OF_ASC_NODE,ARG_OF_PERICENTER,MEAN_ANOMALY,BSTAR,MEAN_MOTION_DOT,MEAN_MOTION_DDOT,TLE_LINE0,TLE_LINE1,TLE_LINE2,SEMIMAJOR_AXIS,PERIOD,APOGEE,PERIGEE,DECAYED
52543.0,STARLINK-3926,PAYLOAD,2024-07-10 03:18:21,15.08854843,9.82e-05,53.2181,336.5294,91.0645,269.0459,0.00097588,0.00015284,0.0,0 STARLINK-3926,1 52543U 22051L   24192.13775071  .00015284  00000-0  97588-3 0  9998,2 52543  53.2181 336.5294 0000982  91.0645 269.0459 15.08854843119795,6917.835,95.437,540.379,539.021,0.0
52543.0,STARLINK-3926,PAYLOAD,2024-07-10 19:12:13,15.08843433,0.0001369,53.2179,333.5553,106.207,253.9073,0.00062427,9.662e-05,0.0,0 STARLINK-3926,1 52543U 22051L   24192.80015365  .00009662  00000-0  62427-3 0  9992,2 52543  53.2179 333.5553 0001369 106.2070 253.9073 15.08843433119896,6917.87,95.437,540.682,538.788,0.0
52543.0,STARLINK-3926,PAYLOAD,2024-07-11 14:16:50,15.08845173,0.0001194,53.2171,329.987,95.8559,264.257,0.00024386,3.596e-05,0.0,0 STARLINK-3926,1 52543U 22051L   24193.59503254  .00003596  00000-0  24386-3 0  9990,2 52543  53.2171 329.9870 0001194  95.8559 264.2570 15.08845173119946,6917.865,95.437,540.556,538.904,0.0
52543.0,STARLINK-3926,PAYLOAD,2024-07-12 12:32:14,15.0884038,0.0001231,53.2181,325.8247,94.1897,265.9235,0.00011406,1.528e-05,0.0,0 STARLINK-3926,1 52543U 22051L   24194.52239511  .00001528  00000-0  11406-3 0  9998,2 52543  53.2181 325.8247 0001231  94.1897 265.9235 15.08840380120155,6917.879,95.438,540.596,538.893,0.0
52543.0,STARLINK-3926,PAYLOAD,2024-07-12 14:07:38,15.08839216,0.0001218,53.2181,325.5271,95.7061,264.407,9.2145e-05,1.179e-05,0.0,0 STARLINK-3926,1 52543U 22051L   24194.58863560  .00001179  00000-0  92145-4 0  9993,2 52543  53.2181 325.5271 0001218  95.7061 264.4070 15.08839216120094,6917.883,95.438,540.59,538.905,0.0
52543.0,STARLINK-3926,PAYLOAD,2024-07-12 15:43:01,15.08837798,0.0001196,53.2181,325.2313,85.768,274.3449,6.289e-05,7.13e-06,0.0,0 STARLINK-3926,1 52543U 22051L   24194.65487654  .00000713  00000-0  62890-4 0  9994,2 52543  53.2181 325.2313 0001196  85.7680 274.3449 15.08837798120104,6917.887,95.438,540.579,538.925,0.0
52543.0,STARLINK-3926,PAYLOAD,2024-07-13 12:23:02,15.08831019,0.0001249,53.2195,321.3683,103.4892,256.624,-3.0619e-05,-7.75e-06,0.0,0 STARLINK-3926,1 52543U 22051L   24195.51600077 -.00000775  00000-0 -30619-4 0  9990,2 52543  53.2195 321.3683 0001249 103.4892 256.6240 15.08831019120302,6917.908,95.438,540.637,538.909,0.0
52543.0,STARLINK-3926,PAYLOAD,2024-07-13 13:58:25,15.08831188,0.0001391,53.2194,321.0703,107.9959,252.1185,-4.0969e-05,-9.4e-06,0.0,0 STARLINK-3926,1 52543U 22051L   24195.58224082 -.00000940  00000-0 -40969-4 0  9998,2 52543  53.2194 321.0703 0001391 107.9959 252.1185 15.08831188120241,6917.907,95.438,540.735,538.81,0.0
52543.0,STARLINK-3926,PAYLOAD,2024-07-13 15:33:48,15.08833013,0.0001136,53.2179,320.7729,96.3011,263.8111,6.3253e-06,-1.87e-06,0.0,0 STARLINK-3926,1 52543U 22051L   24195.64848103 -.00000187  00000-0  63253-5 0  9995,2 52543  53.2179 320.7729 0001136  96.3011 263.8111 15.08833013120253,6917.902,95.438,540.553,538.981,0.0
52543.0,STARLINK-3926,PAYLOAD,2024-07-14 01:06:06,15.08850625,0.0001318,53.2179,318.9876,80.8253,279.2888,0.00022224,3.252e-05,0.0,0 STARLINK-3926,1 52543U 22051L   24196.04591283  .00003252  00000-0  22224-3 0  9990,2 52543  53.2179 318.9876 0001318  80.8253 279.2888 15.08850625120387,6917.848,95.437,540.625,538.801,0.0
52543.0,STARLINK-3926,PAYLOAD,2024-07-14 12:13:49,15.08836461,0.0001845,53.2173,316.9032,81.9191,278.201,8.7515e-05,1.105e-05,0.0,0 STARLINK-3926,1 52543U 22051L   24196.50960228  .00001105  00000-0  87515-4 0  9990,2 52543  53.2173 316.9032 0001845  81.9191 278.2010 15.08836461120457,6917.891,95.438,541.033,538.48,0.0
52543.0,STARLINK-3926,PAYLOAD,2024-07-14 13:49:12,15.08835011,0.000138,53.2188,316.6088,93.6157,266.4993,4.982e-05,5.05e-06,0.0,0 STARLINK-3926,1 52543U 22051L   24196.57584209  .00000505  00000-0  49820-4 0  9998,2 52543  53.2188 316.6088 0001380  93.6157 266.4993 15.08835011120399,6917.896,95.438,540.715,538.806,0.0
52543.0,STARLINK-3926,PAYLOAD,2024-07-14 16:59:58,15.08845499,0.0001151,53.2184,316.0139,100.7326,259.3795,0.00020328,2.949e-05,0.0,0 STARLINK-3926,1 52543U 22051L   24196.70831674  .00002949  00000-0  20328-3 0  9999,2 52543  53.2184 316.0139 0001151 100.7326 259.3795 15.08845499120415,6917.864,95.437,540.525,538.932,0.0
52543.0,STARLINK-3926,PAYLOAD,2024-07-15 00:56:53,15.08863338,0.0001268,53.2189,314.5271,82.4814,277.6322,0.00042383,6.468e-05,0.0,0 STARLINK-3926,1 52543U 22051L   24197.03950778  .00006468  00000-0  42383-3 0  9998,2 52543  53.2189 314.5271 0001268  82.4814 277.6322 15.08863338120531,6917.809,95.436,540.551,538.797,0.0
52543.0,STARLINK-3926,PAYLOAD,2024-07-15 13:39:59,15.08836255,0.0001423,53.2179,312.1476,89.4127,270.7028,-3.6591e-05,-8.7e-06,0.0,0 STARLINK-3926,1 52543U 22051L   24197.56944074 -.00000870  00000-0 -36591-4 0  9996,2 52543  53.2179 312.1476 0001423  89.4127 270.7028 15.08836255120612,6917.892,95.438,540.741,538.772,0.0
52543.0,STARLINK-3926,PAYLOAD,2024-07-15 15:15:22,15.08836204,0.0001344,53.2173,311.8507,88.2782,271.8364,-1.6625e-06,-3.14e-06,0.0,0 STARLINK-3926,1 52543U 22051L   24197.63568050 -.00000314  00000-0 -16625-5 0  9990,2 52543  53.2173 311.8507 0001344  88.2782 271.8364 15.08836204120555,6917.892,95.438,540.687,538.827,0.0
52543.0,STARLINK-3926,PAYLOAD,2024-07-16 00:47:41,15.08848994,0.0001517,53.2179,310.0662,90.204,269.9126,0.0003319,4.999e-05,0.0,0 STARLINK-3926,1 52543U 22051L   24198.03311650  .00004999  00000-0  33190-3 0  9992,2 52543  53.2179 310.0662 0001517  90.2040 269.9126 15.08848994120683,6917.853,95.437,540.767,538.668,0.0
52543.0,STARLINK-3926,PAYLOAD,2024-07-16 13:30:46,15.08839389,0.0001206,53.2163,307.6884,93.4875,266.6255,0.00010298,1.351e-05,0.0,0 STARLINK-3926,1 52543U 22051L   24198.56304062  .00001351  00000-0  10298-3 0  9992,2 52543  53.2163 307.6884 0001206  93.4875 266.6255 15.08839389120764,6917.882,95.438,540.582,538.913,0.0
52543.0,STARLINK-3926,PAYLOAD,2024-07-16 15:06:09,15.08843445,0.0001249,53.2164,307.3905,91.7489,268.3646,0.00034417,5.194e-05,0.0,0 STARLINK-3926,1 52543U 22051L   24198.62927978  .00005194  00000-0  34417-3 0  9994,2 52543  53.2164 307.3905 0001249  91.7489 268.3646 15.08843445120700,6917.87,95.437,540.599,538.871,0.0
52543.0,STARLINK-3926,PAYLOAD,2024-07-17 13:21:33,15.0885893,0.0001466,53.2179,303.227,78.1767,281.939,0.00076431,0.00011903,0.0,0 STARLINK-3926,1 52543U 22051L   24199.55663853  .00011903  00000-0  76431-3 0  9993,2 52543  53.2179 303.2270 0001466  78.1767 281.9390 15.08858930120842,6917.823,95.436,540.702,538.673,0.0
52543.0,STARLINK-3926,PAYLOAD,2024-07-18 13:12:21,15.08837789,0.0001315,53.2172,298.7629,86.2303,273.8839,7.7892e-05,9.52e-06,0.0,0 STARLINK-3926,1 52543U 22051L   24200.55024367  .00000952  00000-0  77892-4 0  9992,2 52543  53.2172 298.7629 0001315  86.2303 273.8839 15.08837789121062,6917.887,95.438,540.662,538.842,0.0
52543.0,STARLINK-3926,PAYLOAD,2024-07-19 13:03:08,15.08838192,0.000133,53.2167,294.3027,83.7658,276.3485,0.00016763,2.381e-05,0.0,0 STARLINK-3926,1 52543U 22051L   24201.54384652  .00002381  00000-0  16763-3 0  9995,2 52543  53.2167 294.3027 0001330  83.7658 276.3485 15.08838192121145,6917.886,95.438,540.671,538.831,0.0
52543.0,STARLINK-3926,PAYLOAD,2024-07-20 12:53:55,15.08834581,0.0001344,53.2162,289.843,83.3085,276.806,0.00012675,1.73e-05,0.0,0 STARLINK-3926,1 52543U 22051L   24202.53745103  .00001730  00000-0  12675-3 0  9992,2 52543  53.2162 289.8430 0001344  83.3085 276.8060 15.08834581121368,6917.897,95.438,540.692,538.832,0.0
52543.0,STARLINK-3926,PAYLOAD,2024-07-20 22:26:13,15.08849691,0.0001333,53.2169,288.0605,93.8594,266.2551,0.00023168,3.402e-05,0.0,0 STARLINK-3926,1 52543U 22051L   24202.93488209  .00003402  00000-0  23168-3 0  9994,2 52543  53.2169 288.0605 0001333  93.8594 266.2551 15.08849691121354,6917.851,95.437,540.638,538.794,0.0
52543.0,STARLINK-3926,PAYLOAD,2024-07-21 04:47:46,15.08841313,0.000158,53.2183,286.8781,106.9457,253.1708,0.00019218,2.772e-05,0.0,0 STARLINK-3926,1 52543U 22051L   24203.19984708  .00002772  00000-0  19218-3 0  9998,2 52543  53.2183 286.8781 0001580 106.9457 253.1708 15.08841313121463,6917.876,95.437,540.834,538.648,0.0
52543.0,STARLINK-3926,PAYLOAD,2024-07-21 11:09:20,15.08832287,0.000151,53.2174,285.6822,95.3345,264.782,5.8559e-05,6.44e-06,0.0,0 STARLINK-3926,1 52543U 22051L   24203.46481591  .00000644  00000-0  58559-4 0  9998,2 52543  53.2174 285.6822 0001510  95.3345 264.7820 15.08832287121504,6917.904,95.438,540.814,538.724,0.0
52543.0,STARLINK-3926,PAYLOAD,2024-07-22 14:10:53,15.08840626,0.0001428,53.2178,280.6282,101.246,258.8693,0.0001832,2.629e-05,0.0,0 STARLINK-3926,1 52543U 22051L   24204.59089173  .00002629  00000-0  18320-3 0  9999,2 52543  53.2178 280.6282 0001428 101.2460 258.8693 15.08840626121605,6917.878,95.438,540.731,538.756,0.0
52543.0,STARLINK-3926,PAYLOAD,2024-07-22 17:21:39,15.08847167,0.0001368,53.2159,280.0315,84.3438,275.7711,0.00025526,3.778e-05,0.0,0 STARLINK-3926,1 52543U 22051L   24204.72336832  .00003778  00000-0  25526-3 0  9993,2 52543  53.2159 280.0315 0001368  84.3438 275.7711 15.08847167121699,6917.858,95.437,540.67,538.777,0.0
52543.0,STARLINK-3926,PAYLOAD,2024-07-23 09:15:30,15.08840166,0.000201,53.2161,277.0588,57.9608,302.1579,0.00019652,2.841e-05,0.0,0 STARLINK-3926,1 52543U 22051L   24205.38577517  .00002841  00000-0  19652-3 0  9996,2 52543  53.2161 277.0588 0002010  57.9608 302.1579 15.08840166121790,6917.88,95.438,541.135,538.354,0.0
52543.0,STARLINK-3926,PAYLOAD,2024-07-24 04:20:08,15.0883144,0.0001325,53.217,273.4939,53.2941,306.8173,0.00026548,3.939e-05,0.0,0 STARLINK-3926,1 52543U 22051L   24206.18065656  .00003939  00000-0  26548-3 0  9992,2 52543  53.2170 273.4939 0001325  53.2941 306.8173 15.08831440121917,6917.907,95.438,540.688,538.855,0.0
